LEMUR-2-HUBBLE-4        
1 64565U 25135AP  26197.54797183  .00000692  00000+0  70823-4 0  9991
2 64565  97.7721 311.1143 0002779 158.5821 201.5516 14.93688184 58252
LEMUR-2-SEJONG-2        
1 64586U 25135BL  26197.85257164  .00002296  00000+0  20503-3 0  9999
2 64586  97.7709 312.6775 0004073 210.8077 149.2906 14.96919594 58382
LEMUR-2-HUBBLE-5        
1 64840U 25135BT  26197.55632926  .00000485  00000+0  50607-4 0  9999
2 64840  97.7741 311.7931 0004402 229.6726 130.4110 14.94215597 58299
LEMUR-2-KARENDARRELL    
1 64841U 25135BU  26197.26343098  .00003809  00000+0  30661-3 0  9997
2 64841  97.7720 313.4341 0012563 101.4569 258.8066 15.00507703 58375
LEMUR-2-LUCILLE-ROSE    
1 65403U 25135BV  26197.30357853  .00003119  00000+0  25193-3 0  9999
2 65403  97.7711 313.5095 0015032 185.6878 174.4177 15.00495624 53007
LEMUR-2-AFFIE-WAUWIE    
1 66295U 25248C   26197.34985153  .00012188  00000+0  44396-3 0  9990
2 66295  45.3891 316.8486 0008811 256.7086 103.2821 15.28283546 39056
OTTER SDM               
1 66678U 25276N   26197.15060765  .00003546  00000+0  16750-3 0  9999
2 66678  97.4204 270.1502 0004338 249.3545 110.7225 15.20063289 34818
LEMUR-2-STAS-GORBUK     
1 66686U 25276W   26197.63321149  .00002874  00000+0  13791-3 0  9992
2 66686  97.4237 270.6765 0003676 240.8005 119.2863 15.19667137 34889
LEMUR-2-TEODOR          
1 66768U 25276DG  26197.65040288  .00002946  00000+0  13461-3 0  9991
2 66768  97.4142 270.9672 0002197  87.4046 272.7441 15.21346168 34925
LEMUR-2-LAILA           
1 66776U 25276DQ  26197.61998832  .00003115  00000+0  14121-3 0  9996
2 66776  97.4165 271.0766 0002923  92.4600 267.6970 15.21572490 34923
LEMUR-2-CELIJO-SB-PK    
1 66781U 25276DW  26197.65218323  .00003257  00000+0  26434-3 0  9993
2 66781  97.5191 267.4570 0006898  60.8187 299.3727 15.00293895 27048
LEMUR-2-FINNIAN         
1 66782U 25276DX  26197.62213727  .00001429  00000+0  11759-3 0  9997
2 66782  97.5353 267.6968 0007223 355.4152   4.7005 15.00626976 24415
LEMUR-2-STARLIGHT       
1 66783U 25276DY  26197.73741352  .00003808  00000+0  31528-3 0  9999
2 66783  97.5234 267.3665 0014757  42.7517 317.4852 14.99367069 34626
LEMUR-2-TARTIFLETTE     
1 66784U 25276DZ  26197.66909338  .00003440  00000+0  28548-3 0  9992
2 66784  97.5233 267.3085 0013921  51.3073 308.9394 14.99350190 34619
LEMUR-2-VUKASIN         
1 66785U 25276EA  26197.43821737  .00002310  00000+0  18768-3 0  9992
2 66785  97.5221 267.4465 0002856  51.1957 308.9522 15.00552455 34539
LEMUR-2-HOTSPUR-TOM     
1 66786U 25276EB  26197.66359253  .00002931  00000+0  24457-3 0  9998
2 66786  97.5215 267.2768 0013734  42.8928 317.3364 14.99250046 34546
